{"type": "FeatureCollection", "features": [ {"type": "Feature", "properties": {"norad_id": 28649, "name": "IRS-P5 (CARTOSAT-1)", "group": "resource", "lat": 62.70035868113398, "lon": -6.399500909061411, "alt_km": 589.5785993616091, "timestamp": "2025-12-07T20:38:13.733927+00:00", "meta": {"OBJECT_NAME": "IRS-P5 (CARTOSAT-1)", "OBJECT_ID": "2005-017A", "EPOCH": "2025-12-07T01:00:59.611968", "MEAN_MOTION": 14.90376472, "ECCENTRICITY": 0.00016017, "INCLINATION": 97.5494, "RA_OF_ASC_NODE": 7.7084, "ARG_OF_PERICENTER": 50.7068, "MEAN_ANOMALY": 309.4292, "EPHEMERIS_TYPE": 0, "CLASSIFICATION_TYPE": "U", "NORAD_CAT_ID": 28649, "ELEMENT_SET_NO": 999, "REV_AT_EPOCH": 11519, "BSTAR": 0.0003161523, "MEAN_MOTION_DOT": 3.025e-05, "MEAN_MOTION_DDOT": 0}, "tle": {"line1": "1 28649U 05017A   25341.04235662  .00003025  00000+0  31615-3 0  9993", "line2": "2 28649  97.5494   7.7084 0001601  50.7068 309.4292 14.90376472115198"}}, "geometry": {"type": "Point", "coordinates": [-6.399500909061411, 62.70035868113398]}}, {"type": "Feature", "properties": {"norad_id": 28893, "name": "SINAH 1", "group": "resource", "lat": 19.115544940168082, "lon": -66.71005100820499, "alt_km": 670.1553359133795, "timestamp": "2025-12-07T20:38:13.733938+00:00", "meta": {"OBJECT_NAME": "SINAH 1", "OBJECT_ID": "2005-043D", "EPOCH": "2025-12-07T06:47:00.860640", "MEAN_MOTION": 14.63953224, "ECCENTRICITY": 0.00150385, "INCLINATION": 98.2601, "RA_OF_ASC_NODE": 109.8254, "ARG_OF_PERICENTER": 153.277, "MEAN_ANOMALY": 206.921, "EPHEMERIS_TYPE": 0, "CLASSIFICATION_TYPE": "U", "NORAD_CAT_ID": 28893, "ELEMENT_SET_NO": 999, "REV_AT_EPOCH": 7244, "BSTAR": 0.00019871534, "MEAN_MOTION_DOT": 9.93e-06, "MEAN_MOTION_DDOT": 0}, "tle": {"line1": "1 28893U 05043D   25341.28264885  .00000993  00000+0  19872-3 0  9990", "line2": "2 28893  98.2601 109.8254 0015038 153.2770 206.9210 14.63953224 72445"}}, "geometry": {"type": "Point", "coordinates": [-66.71005100820499, 19.115544940168082]}}, {"type": "Feature", "properties": {"norad_id": 29079, "name": "EROS B", "group": "resource", "lat": 21.91970298866869, "lon": -78.81477019249478, "alt_km": 369.4240280838003, "timestamp": "2025-12-07T20:38:13.733948+00:00", "meta": {"OBJECT_NAME": "EROS B", "OBJECT_ID": "2006-014A", "EPOCH": "2025-12-07T06:09:56.460672", "MEAN_MOTION": 15.66165032, "ECCENTRICITY": 0.0001726, "INCLINATION": 97.349, "RA_OF_ASC_NODE": 97.5783, "ARG_OF_PERICENTER": 263.3516, "MEAN_ANOMALY": 96.7548, "EPHEMERIS_TYPE": 0, "CLASSIFICATION_TYPE": "U", "NORAD_CAT_ID": 29079, "ELEMENT_SET_NO": 999, "REV_AT_EPOCH": 8994, "BSTAR": 0.0018515859, "MEAN_MOTION_DOT": 0.00194203, "MEAN_MOTION_DDOT": 0}, "tle": {"line1": "1 29079U 06014A   25341.25690348  .00194203  00000+0  18516-2 0  9991", "line2": "2 29079  97.3490  97.5783 0001726 263.3516  96.7548 15.66165032 89946"}}, "geometry": {"type": "Point", "coordinates": [-78.81477019249478, 21.91970298866869]}}, {"type": "Feature", "properties": {"norad_id": 29228, "name": "RESURS-DK 1", "group": "resource", "lat": -46.16348390032664, "lon": 92.07361476694842, "alt_km": 532.3419189708457, "timestamp": "2025-12-07T20:38:13.733959+00:00", "meta": {"OBJECT_NAME": "RESURS-DK 1", "OBJECT_ID": "2006-021A", "EPOCH": "2025-12-06T19:27:22.890240", "MEAN_MOTION": 15.12110904, "ECCENTRICITY": 0.00077341, "INCLINATION": 69.9341, "RA_OF_ASC_NODE": 117.1593, "ARG_OF_PERICENTER": 263.3376, "MEAN_ANOMALY": 96.691, "EPHEMERIS_TYPE": 0, "CLASSIFICATION_TYPE": "U", "NORAD_CAT_ID": 29228, "ELEMENT_SET_NO": 999, "REV_AT_EPOCH": 7348, "BSTAR": 0.00030168792, "MEAN_MOTION_DOT": 5.106e-05, "MEAN_MOTION_DDOT": 0}, "tle": {"line1": "1 29228U 06021A   25340.81068160  .00005106  00000+0  30169-3 0  9999", "line2": "2 29228  69.9341 117.1593 0007734 263.3376  96.6910 15.12110904 73482"}}, "geometry": {"type": "Point", "coordinates": [92.07361476694842, -46.16348390032664]}}, {"type": "Feature", "properties": {"norad_id": 29268, "name": "ARIRANG-2 (KOMPSAT-2)", "group": "resource", "lat": 56.141831389885965, "lon": 158.73963449510245, "alt_km": 673.6142450561174, "timestamp": "2025-12-07T20:38:13.733969+00:00", "meta": {"OBJECT_NAME": "ARIRANG-2 (KOMPSAT-2)", "OBJECT_ID": "2006-031A", "EPOCH": "2025-12-07T05:52:09.503616", "MEAN_MOTION": 14.64486388, "ECCENTRICITY": 0.0013761, "INCLINATION": 97.827, "RA_OF_ASC_NODE": 169.9855, "ARG_OF_PERICENTER": 327.4052, "MEAN_ANOMALY": 87.3068, "EPHEMERIS_TYPE": 0, "CLASSIFICATION_TYPE": "U", "NORAD_CAT_ID": 29268, "ELEMENT_SET_NO": 999, "REV_AT_EPOCH": 3338, "BSTAR": 0.0001513705, "MEAN_MOTION_DOT": 7.58e-06, "MEAN_MOTION_DDOT": 0}, "tle": {"line1": "1 29268U 06031A   25341.24455444  .00000758  00000+0  15137-3 0  9993", "line2": "2 29268  97.8270 169.9855 0013761 327.4052  87.3068 14.64486388 33387"}}, "geometry": {"type": "Point", "coordinates": [158.73963449510245, 56.141831389885965]}}, {"type": "Feature", "properties": {"norad_id": 29709, "name": "LAPAN-TUBSAT", "group": "resource", "lat": -20.19671650474181, "lon": -25.071221449063383, "alt_km": 619.8186071578666, "timestamp": "2025-12-07T20:38:13.733979+00:00", "meta": {"OBJECT_NAME": "LAPAN-TUBSAT", "OBJECT_ID": "2007-001A", "EPOCH": "2025-12-07T06:10:51.567456", "MEAN_MOTION": 14.85657922, "ECCENTRICITY": 0.00136381, "INCLINATION": 98.1252, "RA_OF_ASC_NODE": 331.3015, "ARG_OF_PERICENTER": 90.5292, "MEAN_ANOMALY": 269.7485, "EPHEMERIS_TYPE": 0, "CLASSIFICATION_TYPE": "U", "NORAD_CAT_ID": 29709, "ELEMENT_SET_NO": 999, "REV_AT_EPOCH": 2265, "BSTAR": 0.00014520992, "MEAN_MOTION_DOT": 1.203e-05, "MEAN_MOTION_DDOT": 0}, "tle": {"line1": "1 29709U 07001A   25341.25754129  .00001203  00000+0  14521-3 0  9996", "line2": "2 29709  98.1252 331.3015 0013638  90.5292 269.7485 14.85657922 22655"}}, "geometry": {"type": "Point", "coordinates": [-25.071221449063383, -20.19671650474181]}}, {"type": "Feature", "properties": {"norad_id": 31113, "name": "HAIYANG-1B", "group": "resource", "lat": 73.07378020761132, "lon": 175.12259180894193, "alt_km": 775.2840395405392, "timestamp": "2025-12-07T20:38:13.733990+00:00", "meta": {"OBJECT_NAME": "HAIYANG-1B", "OBJECT_ID": "2007-010A", "EPOCH": "2025-12-07T05:02:49.862112", "MEAN_MOTION": 14.30962174, "ECCENTRICITY": 0.00144822, "INCLINATION": 98.3309, "RA_OF_ASC_NODE": 325.717, "ARG_OF_PERICENTER": 53.3397, "MEAN_ANOMALY": 306.9116, "EPHEMERIS_TYPE": 0, "CLASSIFICATION_TYPE": "U", "NORAD_CAT_ID": 31113, "ELEMENT_SET_NO": 999, "REV_AT_EPOCH": 97317, "BSTAR": 0.00010554065, "MEAN_MOTION_DOT": 2.36e-06, "MEAN_MOTION_DDOT": 0}, "tle": {"line1": "1 31113U 07010A   25341.21029933  .00000236  00000+0  10554-3 0  9999", "line2": "2 31113  98.3309 325.7170 0014482  53.3397 306.9116 14.30962174973177"}}, "geometry": {"type": "Point", "coordinates": [175.12259180894193, 73.07378020761132]}}, {"type": "Feature", "properties": {"norad_id": 31598, "name": "COSMO-SKYMED 1", "group": "resource", "lat": 59.630918709754006, "lon": 0.9053817681895181, "alt_km": 573.8316385609214, "timestamp": "2025-12-07T20:38:13.734000+00:00", "meta": {"OBJECT_NAME": "COSMO-SKYMED 1", "OBJECT_ID": "2007-023A", "EPOCH": "2025-12-07T05:39:18.552960", "MEAN_MOTION": 14.95703261, "ECCENTRICITY": 0.000111, "INCLINATION": 97.8835, "RA_OF_ASC_NODE": 166.5993, "ARG_OF_PERICENTER": 79.3403, "MEAN_ANOMALY": 280.7942, "EPHEMERIS_TYPE": 0, "CLASSIFICATION_TYPE": "U", "NORAD_CAT_ID": 31598, "ELEMENT_SET_NO": 999, "REV_AT_EPOCH": 108, "BSTAR": 0.00051559784, "MEAN_MOTION_DOT": 5.682e-05, "MEAN_MOTION_DDOT": 0}, "tle": {"line1": "1 31598U 07023A   25341.23563140  .00005682  00000+0  51560-3 0  9997", "line2": "2 31598  97.8835 166.5993 0001110  79.3403 280.7942 14.95703261  1085"}}, "geometry": {"type": "Point", "coordinates": [0.9053817681895181, 59.630918709754006]}}, {"type": "Feature", "properties": {"norad_id": 31698, "name": "TERRASAR-X", "group": "resource", "lat": 80.83680355370292, "lon": -66.84409451697903, "alt_km": 499.7547081457142, "timestamp": "2025-12-07T20:38:13.734010+00:00", "meta": {"OBJECT_NAME": "TERRASAR-X", "OBJECT_ID": "2007-026A", "EPOCH": "2025-12-06T14:13:48.566208", "MEAN_MOTION": 15.19149934, "ECCENTRICITY": 0.00017836, "INCLINATION": 97.4444, "RA_OF_ASC_NODE": 346.0634, "ARG_OF_PERICENTER": 82.9925, "MEAN_ANOMALY": 277.1512, "EPHEMERIS_TYPE": 0, "CLASSIFICATION_TYPE": "U", "NORAD_CAT_ID": 31698, "ELEMENT_SET_NO": 999, "REV_AT_EPOCH": 2398, "BSTAR": 0.00013540591, "MEAN_MOTION_DOT": 2.777e-05, "MEAN_MOTION_DDOT": 0}, "tle": {"line1": "1 31698U 07026A   25340.59292322  .00002777  00000+0  13541-3 0  9999", "line2": "2 31698  97.4444 346.0634 0001783  82.9925 277.1512 15.19149934 23984"}}, "geometry": {"type": "Point", "coordinates": [-66.84409451697903, 80.83680355370292]}}, {"type": "Feature", "properties": {"norad_id": 32060, "name": "WORLDVIEW-1 (WV-1)", "group": "resource", "lat": -10.094096469121332, "lon": 100.73339852920355, "alt_km": 496.5521863441945, "timestamp": "2025-12-07T20:38:13.734021+00:00", "meta": {"OBJECT_NAME": "WORLDVIEW-1 (WV-1)", "OBJECT_ID": "2007-041A", "EPOCH": "2025-12-07T08:04:47.408448", "MEAN_MOTION": 15.245567, "ECCENTRICITY": 7.36e-05, "INCLINATION": 97.3846, "RA_OF_ASC_NODE": 98.8947, "ARG_OF_PERICENTER": 101.0462, "MEAN_ANOMALY": 259.0858, "EPHEMERIS_TYPE": 0, "CLASSIFICATION_TYPE": "U", "NORAD_CAT_ID": 32060, "ELEMENT_SET_NO": 999, "REV_AT_EPOCH": 1365, "BSTAR": 0.00054879315, "MEAN_MOTION_DOT": 0.00013456, "MEAN_MOTION_DDOT": 0}, "tle": {"line1": "1 32060U 07041A   25341.33665982  .00013456  00000+0  54879-3 0  9994", "line2": "2 32060  97.3846  98.8947 0000736 101.0462 259.0858 15.24556700 13652"}}, "geometry": {"type": "Point", "coordinates": [100.73339852920355, -10.094096469121332]}}]}